CZ-4B R/B               
1 66989U 25289B   25362.46214059  .00147957  87089-5  66850-3 0  9991
2 66989  97.5223  68.9766 0136854 303.2390  55.5816 15.71173276  3033
TJS-22                  
1 66990U 25290A   25362.33907084  .00000017  00000+0  00000+0 0  9996
2 66990   1.9492 285.0387 0003363 343.3762  17.1593  1.00272055   315
CZ-3B R/B               
1 66991U 25290B   25349.72468800  .00057911 -20514-6  75879-3 0  9998
2 66991  28.4636 300.4666 7240884 182.7002 168.6250  2.38388611   165
2025-292A               
1 66993U 25292A   25362.43598494  .00006424  00000+0  46049-3 0  9998
2 66993  97.6493  74.8329 0014890 216.5816 143.4395 15.04622404  2758
2025-292B               
1 66994U 25292B   25362.50193056  .00007377  00000+0  52737-3 0  9991
2 66994  97.6502  74.9014 0014692 216.7218 143.3003 15.04676611  2765
2025-292C               
1 66995U 25292C   25362.50196981  .00008147  00000+0  58336-3 0  9999
2 66995  97.6493  74.8993 0014865 214.8155 145.2100 15.04578430  2760
2025-292D               
1 66996U 25292D   25362.50137566  .00006087  00000+0  43608-3 0  9991
2 66996  97.6489  74.8991 0014090 218.9306 141.0907 15.04677404  2767
2025-292E               
1 66997U 25292E   25362.43376546  .00006894  00000+0  49145-3 0  9995
2 66997  97.6510  74.8392 0014452 220.6035 139.4115 15.04807588  2747
2025-292F               
1 66998U 25292F   25362.43172970  .00008832  00000+0  62479-3 0  9990
2 66998  97.6532  74.8462 0015578 221.4480 138.5565 15.05001398  2759
2025-292G               
1 66999U 25292G   25362.49744159  .00008793  00000+0  62106-3 0  9994
2 66999  97.6542  74.9151 0015087 223.0997 136.9049 15.05066884  2764
2025-292H               
1 67000U 25292H   25362.43076347  .00010432  00000+0  73504-3 0  9996
2 67000  97.6555  74.8524 0015016 223.2561 136.7487 15.05106916  2626
2025-292J               
1 67001U 25292J   25362.43804632  .00008418  00000+0  60414-3 0  9990
2 67001  97.6524  74.8376 0015320 213.0034 147.0237 15.04479929  2756
