CCSDS_OMM_VERS = 2.0
CREATION_DATE  = 
ORIGINATOR     = 

OBJECT_NAME    = CZ-4B R/B
OBJECT_ID      = 2025-289B
CENTER_NAME    = EARTH
REF_FRAME      = TEME
TIME_SYSTEM    = UTC
MEAN_ELEMENT_THEORY = SGP/SGP4

EPOCH          = 2025-12-28T11:05:28.946976
MEAN_MOTION    = 15.71173276
ECCENTRICITY   = .0136854
INCLINATION    = 97.5223
RA_OF_ASC_NODE = 68.9766
ARG_OF_PERICENTER = 303.2390
MEAN_ANOMALY   = 55.5816

EPHEMERIS_TYPE = 0
CLASSIFICATION_TYPE = U
NORAD_CAT_ID   = 66989
ELEMENT_SET_NO = 999
REV_AT_EPOCH   = 303
BSTAR          = .6685E-3
MEAN_MOTION_DOT = .147957E-2
MEAN_MOTION_DDOT = .87089E-5

CCSDS_OMM_VERS = 2.0
CREATION_DATE  = 
ORIGINATOR     = 

OBJECT_NAME    = TJS-22
OBJECT_ID      = 2025-290A
CENTER_NAME    = EARTH
REF_FRAME      = TEME
TIME_SYSTEM    = UTC
MEAN_ELEMENT_THEORY = SGP/SGP4

EPOCH          = 2025-12-28T08:08:15.720576
MEAN_MOTION    = 1.00272055
ECCENTRICITY   = .0003363
INCLINATION    = 1.9492
RA_OF_ASC_NODE = 285.0387
ARG_OF_PERICENTER = 343.3762
MEAN_ANOMALY   = 17.1593

EPHEMERIS_TYPE = 0
CLASSIFICATION_TYPE = U
NORAD_CAT_ID   = 66990
ELEMENT_SET_NO = 999
REV_AT_EPOCH   = 31
BSTAR          = 0
MEAN_MOTION_DOT = .17E-6
MEAN_MOTION_DDOT = 0

CCSDS_OMM_VERS = 2.0
CREATION_DATE  = 
ORIGINATOR     = 

OBJECT_NAME    = CZ-3B R/B
OBJECT_ID      = 2025-290B
CENTER_NAME    = EARTH
REF_FRAME      = TEME
TIME_SYSTEM    = UTC
MEAN_ELEMENT_THEORY = SGP/SGP4

EPOCH          = 2025-12-15T17:23:33.043200
MEAN_MOTION    = 2.38388611
ECCENTRICITY   = .7240884
INCLINATION    = 28.4636
RA_OF_ASC_NODE = 300.4666
ARG_OF_PERICENTER = 182.7002
MEAN_ANOMALY   = 168.6250

EPHEMERIS_TYPE = 0
CLASSIFICATION_TYPE = U
NORAD_CAT_ID   = 66991
ELEMENT_SET_NO = 999
REV_AT_EPOCH   = 16
BSTAR          = .75879E-3
MEAN_MOTION_DOT = .57911E-3
MEAN_MOTION_DDOT = -.20514E-6

CCSDS_OMM_VERS = 2.0
CREATION_DATE  = 
ORIGINATOR     = 

OBJECT_NAME    = 2025-292A
OBJECT_ID      = 2025-292A
CENTER_NAME    = EARTH
REF_FRAME      = TEME
TIME_SYSTEM    = UTC
MEAN_ELEMENT_THEORY = SGP/SGP4

EPOCH          = 2025-12-28T10:27:49.098816
MEAN_MOTION    = 15.04622404
ECCENTRICITY   = .001489
INCLINATION    = 97.6493
RA_OF_ASC_NODE = 74.8329
ARG_OF_PERICENTER = 216.5816
MEAN_ANOMALY   = 143.4395

EPHEMERIS_TYPE = 0
CLASSIFICATION_TYPE = U
NORAD_CAT_ID   = 66993
ELEMENT_SET_NO = 999
REV_AT_EPOCH   = 275
BSTAR          = .46049E-3
MEAN_MOTION_DOT = .6424E-4
MEAN_MOTION_DDOT = 0

CCSDS_OMM_VERS = 2.0
CREATION_DATE  = 
ORIGINATOR     = 

OBJECT_NAME    = 2025-292B
OBJECT_ID      = 2025-292B
CENTER_NAME    = EARTH
REF_FRAME      = TEME
TIME_SYSTEM    = UTC
MEAN_ELEMENT_THEORY = SGP/SGP4

EPOCH          = 2025-12-28T12:02:46.800384
MEAN_MOTION    = 15.04676611
ECCENTRICITY   = .0014692
INCLINATION    = 97.6502
RA_OF_ASC_NODE = 74.9014
ARG_OF_PERICENTER = 216.7218
MEAN_ANOMALY   = 143.3003

EPHEMERIS_TYPE = 0
CLASSIFICATION_TYPE = U
NORAD_CAT_ID   = 66994
ELEMENT_SET_NO = 999
REV_AT_EPOCH   = 276
BSTAR          = .52737E-3
MEAN_MOTION_DOT = .7377E-4
MEAN_MOTION_DDOT = 0

CCSDS_OMM_VERS = 2.0
CREATION_DATE  = 
ORIGINATOR     = 

OBJECT_NAME    = 2025-292C
OBJECT_ID      = 2025-292C
CENTER_NAME    = EARTH
REF_FRAME      = TEME
TIME_SYSTEM    = UTC
MEAN_ELEMENT_THEORY = SGP/SGP4

EPOCH          = 2025-12-28T12:02:50.191584
MEAN_MOTION    = 15.04578430
ECCENTRICITY   = .0014865
INCLINATION    = 97.6493
RA_OF_ASC_NODE = 74.8993
ARG_OF_PERICENTER = 214.8155
MEAN_ANOMALY   = 145.2100

EPHEMERIS_TYPE = 0
CLASSIFICATION_TYPE = U
NORAD_CAT_ID   = 66995
ELEMENT_SET_NO = 999
REV_AT_EPOCH   = 276
BSTAR          = .58336E-3
MEAN_MOTION_DOT = .8147E-4
MEAN_MOTION_DDOT = 0

CCSDS_OMM_VERS = 2.0
CREATION_DATE  = 
ORIGINATOR     = 

OBJECT_NAME    = 2025-292D
OBJECT_ID      = 2025-292D
CENTER_NAME    = EARTH
REF_FRAME      = TEME
TIME_SYSTEM    = UTC
MEAN_ELEMENT_THEORY = SGP/SGP4

EPOCH          = 2025-12-28T12:01:58.857024
MEAN_MOTION    = 15.04677404
ECCENTRICITY   = .001409
INCLINATION    = 97.6489
RA_OF_ASC_NODE = 74.8991
ARG_OF_PERICENTER = 218.9306
MEAN_ANOMALY   = 141.0907

EPHEMERIS_TYPE = 0
CLASSIFICATION_TYPE = U
NORAD_CAT_ID   = 66996
ELEMENT_SET_NO = 999
REV_AT_EPOCH   = 276
BSTAR          = .43608E-3
MEAN_MOTION_DOT = .6087E-4
MEAN_MOTION_DDOT = 0

CCSDS_OMM_VERS = 2.0
CREATION_DATE  = 
ORIGINATOR     = 

OBJECT_NAME    = 2025-292E
OBJECT_ID      = 2025-292E
CENTER_NAME    = EARTH
REF_FRAME      = TEME
TIME_SYSTEM    = UTC
MEAN_ELEMENT_THEORY = SGP/SGP4

EPOCH          = 2025-12-28T10:24:37.335744
MEAN_MOTION    = 15.04807588
ECCENTRICITY   = .0014452
INCLINATION    = 97.6510
RA_OF_ASC_NODE = 74.8392
ARG_OF_PERICENTER = 220.6035
MEAN_ANOMALY   = 139.4115

EPHEMERIS_TYPE = 0
CLASSIFICATION_TYPE = U
NORAD_CAT_ID   = 66997
ELEMENT_SET_NO = 999
REV_AT_EPOCH   = 274
BSTAR          = .49145E-3
MEAN_MOTION_DOT = .6894E-4
MEAN_MOTION_DDOT = 0

CCSDS_OMM_VERS = 2.0
CREATION_DATE  = 
ORIGINATOR     = 

OBJECT_NAME    = 2025-292F
OBJECT_ID      = 2025-292F
CENTER_NAME    = EARTH
REF_FRAME      = TEME
TIME_SYSTEM    = UTC
MEAN_ELEMENT_THEORY = SGP/SGP4

EPOCH          = 2025-12-28T10:21:41.446080
MEAN_MOTION    = 15.05001398
ECCENTRICITY   = .0015578
INCLINATION    = 97.6532
RA_OF_ASC_NODE = 74.8462
ARG_OF_PERICENTER = 221.4480
MEAN_ANOMALY   = 138.5565

EPHEMERIS_TYPE = 0
CLASSIFICATION_TYPE = U
NORAD_CAT_ID   = 66998
ELEMENT_SET_NO = 999
REV_AT_EPOCH   = 275
BSTAR          = .62479E-3
MEAN_MOTION_DOT = .8832E-4
MEAN_MOTION_DDOT = 0

CCSDS_OMM_VERS = 2.0
CREATION_DATE  = 
ORIGINATOR     = 

OBJECT_NAME    = 2025-292G
OBJECT_ID      = 2025-292G
CENTER_NAME    = EARTH
REF_FRAME      = TEME
TIME_SYSTEM    = UTC
MEAN_ELEMENT_THEORY = SGP/SGP4

EPOCH          = 2025-12-28T11:56:18.953376
MEAN_MOTION    = 15.05066884
ECCENTRICITY   = .0015087
INCLINATION    = 97.6542
RA_OF_ASC_NODE = 74.9151
ARG_OF_PERICENTER = 223.0997
MEAN_ANOMALY   = 136.9049

EPHEMERIS_TYPE = 0
CLASSIFICATION_TYPE = U
NORAD_CAT_ID   = 66999
ELEMENT_SET_NO = 999
REV_AT_EPOCH   = 276
BSTAR          = .62106E-3
MEAN_MOTION_DOT = .8793E-4
MEAN_MOTION_DDOT = 0

CCSDS_OMM_VERS = 2.0
CREATION_DATE  = 
ORIGINATOR     = 

OBJECT_NAME    = 2025-292H
OBJECT_ID      = 2025-292H
CENTER_NAME    = EARTH
REF_FRAME      = TEME
TIME_SYSTEM    = UTC
MEAN_ELEMENT_THEORY = SGP/SGP4

EPOCH          = 2025-12-28T10:20:17.963808
MEAN_MOTION    = 15.05106916
ECCENTRICITY   = .0015016
INCLINATION    = 97.6555
RA_OF_ASC_NODE = 74.8524
ARG_OF_PERICENTER = 223.2561
MEAN_ANOMALY   = 136.7487

EPHEMERIS_TYPE = 0
CLASSIFICATION_TYPE = U
NORAD_CAT_ID   = 67000
ELEMENT_SET_NO = 999
REV_AT_EPOCH   = 262
BSTAR          = .73504E-3
MEAN_MOTION_DOT = .10432E-3
MEAN_MOTION_DDOT = 0

CCSDS_OMM_VERS = 2.0
CREATION_DATE  = 
ORIGINATOR     = 

OBJECT_NAME    = 2025-292J
OBJECT_ID      = 2025-292J
CENTER_NAME    = EARTH
REF_FRAME      = TEME
TIME_SYSTEM    = UTC
MEAN_ELEMENT_THEORY = SGP/SGP4

EPOCH          = 2025-12-28T10:30:47.202048
MEAN_MOTION    = 15.04479929
ECCENTRICITY   = .001532
INCLINATION    = 97.6524
RA_OF_ASC_NODE = 74.8376
ARG_OF_PERICENTER = 213.0034
MEAN_ANOMALY   = 147.0237

EPHEMERIS_TYPE = 0
CLASSIFICATION_TYPE = U
NORAD_CAT_ID   = 67001
ELEMENT_SET_NO = 999
REV_AT_EPOCH   = 275
BSTAR          = .60414E-3
MEAN_MOTION_DOT = .8418E-4
MEAN_MOTION_DDOT = 0

